{
  "norad_id": 65333,
  "name": "STARLINK-34602",
  "history": [
    {
      "epoch": "2026-03-28T11:04:09.689664Z",
      "apogee_km": 476.4384894607938,
      "perigee_km": 473.99554288818945,
      "latitude_deg": -4.295242107307577e-05,
      "longitude_deg": 127.41445625389795,
      "height_km": 475.5155101320283,
      "semi_major_axis_km": 6853.354016174491,
      "eccentricity": 0.00017823,
      "inclination_deg": 53.1598,
      "raan_deg": 119.3362,
      "arg_perigee_deg": 60.6238,
      "mean_anomaly_deg": 299.494,
      "mean_motion_rev_day": 15.30199348
    },
    {
      "epoch": "2026-03-30T00:41:26.274048Z",
      "apogee_km": 476.27866398092647,
      "perigee_km": 474.0746383107189,
      "latitude_deg": 4.705731533328169e-05,
      "longitude_deg": -85.72142874947147,
      "height_km": 476.2179682303522,
      "semi_major_axis_km": 6853.313651145822,
      "eccentricity": 0.0001608,
      "inclination_deg": 53.1575,
      "raan_deg": 112.0644,
      "arg_perigee_deg": 97.5066,
      "mean_anomaly_deg": 262.6118,
      "mean_motion_rev_day": 15.30212867
    },
    {
      "epoch": "2026-03-30T05:23:35.931552Z",
      "apogee_km": 475.98386163674877,
      "perigee_km": 474.39471233732274,
      "latitude_deg": -4.330145347905434e-05,
      "longitude_deg": -157.36936776356873,
      "height_km": 476.09880536714513,
      "semi_major_axis_km": 6853.326286987036,
      "eccentricity": 0.00011594,
      "inclination_deg": 53.1575,
      "raan_deg": 111.1499,
      "arg_perigee_deg": 90.833,
      "mean_anomaly_deg": 269.2803,
      "mean_motion_rev_day": 15.30208635
    },
    {
      "epoch": "2026-03-30T08:31:42.353184Z",
      "apogee_km": 476.0782627597446,
      "perigee_km": 474.32874199629623,
      "latitude_deg": -4.701184879846584e-05,
      "longitude_deg": 154.8679181378636,
      "height_km": 475.9458122405241,
      "semi_major_axis_km": 6853.34050237802,
      "eccentricity": 0.00012764,
      "inclination_deg": 53.1576,
      "raan_deg": 110.5427,
      "arg_perigee_deg": 79.758,
      "mean_anomaly_deg": 280.3564,
      "mean_motion_rev_day": 15.30203874
    },
    {
      "epoch": "2026-03-30T17:56:01.497984Z",
      "apogee_km": 475.95606198854057,
      "perigee_km": 474.3929586992617,
      "latitude_deg": 5.486479507869622e-05,
      "longitude_deg": 11.583961815782818,
      "height_km": 476.05260499805826,
      "semi_major_axis_km": 6853.311510343901,
      "eccentricity": 0.00011404,
      "inclination_deg": 53.1569,
      "raan_deg": 108.7247,
      "arg_perigee_deg": 88.5467,
      "mean_anomaly_deg": 271.5665,
      "mean_motion_rev_day": 15.30213584
    },
    {
      "epoch": "2026-03-31T17:26:49.732800Z",
      "apogee_km": 476.17728913357314,
      "perigee_km": 474.2775365183379,
      "latitude_deg": -2.590265600724045e-05,
      "longitude_deg": 13.367463581399063,
      "height_km": 476.08033573514314,
      "semi_major_axis_km": 6853.364412825955,
      "eccentricity": 0.0001386,
      "inclination_deg": 53.1575,
      "raan_deg": 104.1749,
      "arg_perigee_deg": 87.301,
      "mean_anomaly_deg": 272.8149,
      "mean_motion_rev_day": 15.30195866
    },
    {
      "epoch": "2026-04-01T10:41:24.541152Z",
      "apogee_km": 475.9727581879588,
      "perigee_km": 474.3937532010468,
      "latitude_deg": -3.0469724195324757e-05,
      "longitude_deg": 110.67628136842768,
      "height_km": 475.97099763609475,
      "semi_major_axis_km": 6853.3202556945025,
      "eccentricity": 0.0001152,
      "inclination_deg": 53.1574,
      "raan_deg": 100.8369,
      "arg_perigee_deg": 81.9734,
      "mean_anomaly_deg": 278.1397,
      "mean_motion_rev_day": 15.30210655
    }
  ]
}